SatCatId,ObjectName,LaunchYear,OrbitalPeriod,LaunchMass,StatusCode,Inclination,Status,UcsData,OrbitClassEstimated,LaunchSiteCountry,Owner,UseType,Purpose,LaunchVehicleClass,TLE1,TLE2,MeanMotion,Eccentricity,OrbitClass
36097,INTELSAT 14 (IS-14),2009,1436.09,5613.0,+,0.01,Active,1,GSO,USA,INTELSAT,Commercial,Communications,Atlas,1 36097U 09064A   23363.75110343 -.00000263  00000+0  00000+0 0  9995,2 36097   0.0118  40.8864 0002767 242.0327  40.4156  1.00272432 51668,1.00272432,0.0002767,GEO
36101,EUTELSAT 36B,2009,1436.08,5600.0,+,0.07,Active,1,GSO,Kazakhstan,EUTELSAT,Commercial,Communications,Breeze,1 36101U 09065A   23363.55228545  .00000165  00000+0  00000+0 0  9994,2 36101   0.0660  13.5261 0005668 269.8629  49.0478  1.00272855 51682,1.00272855,0.0005668,GEO
36106,INTELSAT 15 (IS-15),2009,1436.08,2550.0,+,0.02,Active,1,GSO,Kazakhstan,INTELSAT,Commercial,Communications,Zenit,1 36106U 09067A   23363.85367532 -.00000175  00000+0  00000+0 0  9996,2 36106   0.0182 343.4307 0002243 308.8445 198.2232  1.00272568 51572,1.00272568,0.0002243,GEO
36108,WGS F3 (USA 211),2009,1436.14,5990.0,+,0.14,Active,1,GSO,USA,USA,Military,Communications,Delta,1 36108U 09068A   23363.47046120 -.00000258  00000+0  00000+0 0  9996,2 36108   0.1388  92.6032 0000816 168.8910 322.7250  1.00268436 37573,1.00268436,8.16e-05,GEO
36110,YAOGAN 7,2009,97.57,2700.0,+,98.13,Active,1,LEO,PRC,China,Government,Earth Observation,Long March,1 36110U 09069A   23363.65339901  .00000834  00000+0  12852-3 0  9993,2 36110  98.1290 233.7210 0026795  56.6405 303.7363 14.75873151756730,14.75873151,0.0026795,LEO
36111,COSMOS 2456 [GLONASS-M],2009,675.74,1415.0,+,64.54,Active,1,MEO,Kazakhstan,Russia/USSR,Commercial/Military,Navigation (Global or Regional Positioning),Proton,1 36111U 09070A   23363.43678589 -.00000009  00000+0  00000+0 0  9993,2 36111  64.5386 101.8193 0003008 296.2634 134.3028  2.13098994109233,2.13098994,0.0003008,MEO
36112,COSMOS 2457 [GLONASS-M],2009,675.74,1415.0,+,64.52,Active,1,MEO,Kazakhstan,Russia/USSR,Commercial/Military,Navigation (Global or Regional Positioning),Proton,1 36112U 09070B   23363.63378528 -.00000007  00000+0  00000+0 0  9994,2 36112  64.5227 101.6752 0005448 166.2790 187.1205  2.13101185109270,2.13101185,0.0005448,MEO
36119,WISE,2009,92.87,-1.0,X,97.17,Active,0,LEO,USA,USA,Unknown,Unknown,Delta,1 36119U 09071A   23363.56727337  .00024301  00000+0  42694-3 0  9991,2 36119  97.1715  34.6223 0003181  76.2738 283.8868 15.50498645781701,15.50498645,0.0003181,LEO
36121,YAOGAN 8,2009,110.34,-1.0,+,100.29,Active,1,LEO,PRC,China,Government,Earth Observation,Long March,1 36121U 09072A   23363.71732242 -.00000405  00000+0 -11195-2 0  9995,2 36121 100.2913 276.1249 0020910 187.1283 172.9530 13.05015945671299,13.05015945,0.002091,LEO
36122,XIWANG-1 (HOPE-1),2009,109.39,60.0,P,100.27,Active,1,LEO,PRC,China,Civil,Communications,Long March,1 36122U 09072B   23363.33548872 -.00000042  00000+0  48347-5 0  9996,2 36122 100.2699 321.2921 0007926 131.8088 228.3703 13.16392822674476,13.16392822,0.0007926,LEO
36131,DIRECTV 12,2009,1436.09,5900.0,+,0.05,Active,1,GSO,Kazakhstan,USA,Commercial,Communications,Breeze,1 36131U 09075A   23363.65469059 -.00000092  00000+0  00000+0 0  9996,2 36131   0.0490 188.1441 0000513 305.4368  97.2294  1.00264618 51359,1.00264618,5.13e-05,GEO
36287,BEIDOU-2 G1,2010,1436.06,-1.0,P,2.25,Active,0,GSO,PRC,China,Unknown,Unknown,Unknown,1 36287U 10001A   23363.84485494 -.00000271  00000+0  00000+0 0  9990,2 36287   2.2506  55.2357 0004965 276.8861 210.5092  1.00274280 51135,1.0027428,0.0004965,GSO
36358,RADUGA-1M 2,2010,1436.09,2500.0,+,1.28,Active,1,GSO,Kazakhstan,Russia/USSR,Military,Communications,Proton,1 36358U 10002A   23363.57683781 -.00000176  00000+0  00000+0 0  9993,2 36358   1.2776  90.7848 0003185 169.2127 130.4679  1.00272596 41053,1.00272596,0.0003185,GSO
36395,SDO,2010,1436.12,3100.0,+,32.77,Active,1,GSO,USA,USA,Government,Space Science,Atlas,1 36395U 10005A   23361.30434304 -.00000088  00000+0  00000+0 0  9993,2 36395  32.7704 100.3062 0002379 201.6124 161.0879  1.00269900 51016,1.002699,0.0002379,GSO
36397,INTELSAT 16 (IS-16),2010,1436.1,2450.0,+,0.02,Active,1,GSO,Kazakhstan,INTELSAT,Commercial,Communications,Proton,1 36397U 10006A   23363.74475076 -.00000235  00000+0  00000+0 0  9991,2 36397   0.0173 358.1886 0002338 280.2660  11.3816  1.00272350 50689,1.0027235,0.0002338,GEO
36402,COSMOS 2460 [GLONASS-M],2010,675.72,1415.0,+,65.85,Active,1,MEO,Kazakhstan,Russia/USSR,Commercial/Military,Navigation (Global or Regional Positioning),Proton,1 36402U 10007C   23363.29298850 -.00000068  00000+0  00000+0 0  9996,2 36402  65.8520 344.7719 0002800 290.0524 151.6881  2.13106319107532,2.13106319,0.00028,MEO
36411,EWS-G2 (GOES 15),2010,1436.05,3175.0,B,0.13,Active,1,GSO,USA,USA,Government,Earth Observation,Delta,1 36411U 10008A   23363.55733278  .00000047  00000+0  00000+0 0  9990,2 36411   0.1277 268.7264 0006279 352.9184  98.0652  1.00275211 50605,1.00275211,0.0006279,GEO
36413,YAOGAN 9A,2010,107.04,-1.0,+,63.37,Active,1,LEO,PRC,China,Government,Earth Observation,Long March,1 36413U 10009A   23363.81876090 -.00000018  00000+0  64642-4 0  9998,2 36413  63.3744 165.2459 0460406  15.3429 346.1033 13.45343605678962,13.45343605,0.0460406,LEO
36414,YAOGAN 9B,2010,107.03,-1.0,+,63.38,Active,1,LEO,PRC,China,Government,Earth Observation,Long March,1 36414U 10009B   23363.58238192 -.00000053  00000+0  33719-4 0  9998,2 36414  63.3758 165.4598 0460865  14.6134 346.7710 13.45355944678561,13.45355944,0.0460865,LEO
36415,YAOGAN 9C,2010,107.03,-1.0,+,63.38,Active,1,LEO,PRC,China,Government,Earth Observation,Long March,1 36415U 10009C   23363.58038767 -.00000049  00000+0  37272-4 0  9998,2 36415  63.3753 166.0418 0461662  14.9190 346.4941 13.45357000678722,13.45357,0.0461662,LEO
36499,ECHOSTAR 14,2010,1436.12,6384.0,+,0.02,Active,1,GSO,Kazakhstan,USA,Commercial,Communications,Proton,1 36499U 10010A   23363.50306233  .00000010  00000+0  00000+0 0  9991,2 36499   0.0214  18.1237 0001931 258.0670 243.7130  1.00270116 37529,1.00270116,0.0001931,GEO
36508,CRYOSAT 2,2010,99.18,720.0,+,92.03,Active,1,LEO,Kazakhstan,ESA,Government,Earth Observation,Dnepr,1 36508U 10013A   23363.57271399  .00000297  00000+0  72875-4 0  9997,2 36508  92.0312  59.6830 0005074 121.9177 238.2525 14.51903317727407,14.51903317,0.0005074,LEO
36516,SES-1,2010,1436.09,-1.0,+,0.02,Active,1,GSO,Kazakhstan,SES,Commercial,Communications,Proton,1 36516U 10016A   23363.62876855 -.00000104  00000+0  00000+0 0  9997,2 36516   0.0167 340.4710 0003004 307.1677 295.5235  1.00272137 50003,1.00272137,0.0003004,GEO
36519,COSMOS 2463,2010,104.99,-1.0,+,82.96,Active,0,LEO,Russia,Russia/USSR,Unknown,Unknown,Kosmos,1 36519U 10017A   23363.57224826  .00000074  00000+0  64478-4 0  9999,2 36519  82.9598 191.3784 0037359 108.4333 306.1956 13.71535590684477,13.7153559,0.0037359,LEO
36581,ASTRA 3B,2010,1436.08,5471.0,+,0.04,Active,1,GSO,French Guiana,SES,Commercial,Communications,Ariane,1 36581U 10021A   23363.53868611  .00000147  00000+0  00000+0 0  9992,2 36581   0.0450   1.6763 0001834 276.7503  36.7322  1.00273292 49847,1.00273292,0.0001834,GEO
36582,COMSATBW-2,2010,1436.11,2440.0,+,0.08,Active,1,GSO,French Guiana,Germany,Military,Communications,Ariane,1 36582U 10021B   23363.54776028  .00000097  00000+0  00000+0 0  9998,2 36582   0.0767  66.4546 0003526 219.5413  22.0937  1.00270775 49924,1.00270775,0.0003526,GEO
36585,NAVSTAR 65 (USA 213),2010,717.96,1630.0,+,54.51,Active,1,MEO,USA,USA,Commercial/Military,Navigation (Global or Regional Positioning),Delta,1 36585U 10022A   23363.27184435  .00000019  00000+0  00000+0 0  9991,2 36585  54.5117 244.9050 0114689  60.4091 119.0249  2.00567998 99522,2.00567998,0.0114689,MEO
36590,BEIDOU-2 G3,2010,1436.1,-1.0,P,2.43,Active,0,GSO,PRC,China,Unknown,Unknown,Unknown,1 36590U 10024A   23363.57613080 -.00000127  00000+0  00000+0 0  9996,2 36590   2.4280  58.9627 0006614 317.2136   8.6268  1.00271231 49738,1.00271231,0.0006614,GSO
36592,BADR-5,2010,1436.14,5420.0,+,0.04,Active,1,GSO,Kazakhstan,Arabsat,Government,Communications,Proton,1 36592U 10025A   23363.53868611  .00000154  00000+0  00000+0 0  9996,2 36592   0.0395 127.7673 0002411  98.8780  91.0037  1.00268682 44185,1.00268682,0.0002411,GEO
36596,SJ-12,2010,95.84,-1.0,+,97.75,Active,1,LEO,PRC,China,Government,Technology Development,Long March,1 36596U 10027A   23363.77313635  .00004851  00000+0  37010-3 0  9992,2 36596  97.7527 353.1887 0005727 295.8259  64.2374 15.02474202739028,15.02474202,0.0005727,LEO
36605,TANDEM-X,2010,94.79,1350.0,+,97.45,Active,1,LEO,Kazakhstan,Germany,Government,Earth Observation,Dnepr,1 36605U 10030A   23363.50898044  .00002091  00000+0  10272-3 0  9995,2 36605  97.4454   8.1009 0001976  98.3931 261.7528 15.19154759749906,15.19154759,0.0001976,LEO
36744,COMS 1,2010,1436.11,2460.0,+,2.5,Active,1,GSO,French Guiana,South Korea,Government,Earth Observation/Communications,Ariane,1 36744U 10032A   23363.65850836 -.00000336  00000+0  00000+0 0  9999,2 36744   2.5019  86.9698 0000980 194.1060 182.0189  1.00270151 49624,1.00270151,9.8e-05,GSO
36745,ARABSAT-5A,2010,1436.09,4940.0,+,0.07,Active,1,GSO,French Guiana,Arabsat,Government,Communications,Ariane,1 36745U 10032B   23363.53313179  .00000163  00000+0  00000+0 0  9998,2 36745   0.0740  55.8655 0002262 233.2160  31.0403  1.00272069 49619,1.00272069,0.0002262,GEO
36792,ECHOSTAR 15,2010,1436.14,5521.0,+,0.01,Active,1,GSO,Kazakhstan,USA,Commercial,Communications,Proton,1 36792U 10034A   23363.53287938 -.00000272  00000+0  00000+0 0  9997,2 36792   0.0142  47.5124 0002394 211.6753 328.7048  1.00277660 49365,1.0027766,0.0002394,GEO
36795,CARTOSAT-2B,2010,97.38,694.0,+,97.89,Active,1,LEO,India,India,Government,Earth Observation,PSLV,1 36795U 10035A   23363.75643509  .00001170  00000+0  16636-3 0  9998,2 36795  97.8861  60.5348 0011945 227.3000 132.7206 14.78686567726869,14.78686567,0.0011945,LEO
